GEOSCAN 3 (RS92S3)      
1 64893U 25155T   26199.20432243  .00010578  00000+0  30010-3 0  9992
2 64893  97.4558 169.4689 0008490  79.4418 280.7782 15.36373580 85612
INNOSAT 3 (RS92S0)      
1 64894U 25155U   26199.20752759  .00024160  00000+0  49629-3 0  9998
2 64894  97.4503 171.4999 0008062  83.7042 276.5125 15.45966341 85758
KNACKSAT-2              
1 67683U 98067XZ  26199.07280907  .00034011  00000+0  37689-3 0  9994
2 67683  51.6275 138.8026 0007917 337.9309  22.1343 15.62605935 25109
