OBJECT_NAME,OBJECT_ID,EPOCH,MEAN_MOTION,ECCENTRICITY,INCLINATION,RA_OF_ASC_NODE,ARG_OF_PERICENTER,MEAN_ANOMALY,EPHEMERIS_TYPE,CLASSIFICATION_TYPE,NORAD_CAT_ID,ELEMENT_SET_NO,REV_AT_EPOCH,BSTAR,MEAN_MOTION_DOT,MEAN_MOTION_DDOT
GEOSCAN 3 (RS92S3),2025-155T,2026-07-18T04:54:13.457952,15.36373580,.00084902,97.4558,169.4689,79.4418,280.7782,0,U,64893,999,8561,.3001011E-3,.10578E-3,0
INNOSAT 3 (RS92S0),2025-155U,2026-07-18T04:58:50.383776,15.45966341,.00080622,97.4503,171.4999,83.7042,276.5125,0,U,64894,999,8575,.49628835E-3,.2416E-3,0
KNACKSAT-2,1998-067XZ,2026-07-18T01:44:50.703648,15.62605935,.00079174,51.6275,138.8026,337.9309,22.1343,0,U,67683,999,2510,.3768944E-3,.34011E-3,0
